start=new Date('2022-02-28T00:00:00.000Z').valueOf();
sats=[{"PERIAPSIS":"546.093","OBJECT_TYPE":"PAYLOAD","REF_FRAME":"TEME","RA_OF_ASC_NODE":"71.2926","TLE_LINE2":"2 47139  53.0553  71.2926 0001646  58.7982 301.3168 15.06393564 70315","NORAD_CAT_ID":"47139","MEAN_ELEMENT_THEORY":"SGP4","MEAN_MOTION_DDOT":"0.0000000000000","APOAPSIS":"548.373","EPOCH":"2022-02-27T10:43:05.405376","OBJECT_ID":"2020-088T","BSTAR":"-0.00006103400000","FILE":"3330318","INCLINATION":"53.0553","DECAY_DATE":null,"MEAN_MOTION_DOT":"-0.00001190","ARG_OF_PERICENTER":"58.7982","LAUNCH_DATE":"2020-11-25","ELEMENT_SET_NO":"999","REV_AT_EPOCH":"7031","SEMIMAJOR_AXIS":"6925.368","GP_ID":"197244572","TLE_LINE1":"1 47139U 20088T   22058.44659034 -.00001190  00000-0 -61034-4 0  9995","ECCENTRICITY":"0.00016460","CENTER_NAME":"EARTH","MEAN_ANOMALY":"301.3168","PERIOD":"95.593","CLASSIFICATION_TYPE":"U","COUNTRY_CODE":"US","TIME_SYSTEM":"UTC","EPHEMERIS_TYPE":"0","SITE":"AFETR","OBJECT_NAME":"STARLINK-1852","MEAN_MOTION":"15.06393564","RCS_SIZE":"LARGE"},{"EPHEMERIS_TYPE":"0","SITE":"AFETR","OBJECT_NAME":"STARLINK-1854","MEAN_MOTION":"15.06402445","RCS_SIZE":"LARGE","CLASSIFICATION_TYPE":"U","COUNTRY_CODE":"US","TIME_SYSTEM":"UTC","TLE_LINE1":"1 47141U 20088V   22058.72351817  .00001242  00000-0  10225-3 0  9998","ECCENTRICITY":"0.00015650","CENTER_NAME":"EARTH","MEAN_ANOMALY":"293.7219","PERIOD":"95.592","ELEMENT_SET_NO":"999","REV_AT_EPOCH":"7027","SEMIMAJOR_AXIS":"6925.341","GP_ID":"197286417","FILE":"3331200","INCLINATION":"53.0576","DECAY_DATE":null,"MEAN_MOTION_DOT":"0.00001242","ARG_OF_PERICENTER":"66.3934","LAUNCH_DATE":"2020-11-25","MEAN_MOTION_DDOT":"0.0000000000000","APOAPSIS":"548.290","OBJECT_ID":"2020-088V","EPOCH":"2022-02-27T17:21:51.969888","BSTAR":"0.00010225000000","REF_FRAME":"TEME","RA_OF_ASC_NODE":"55.0462","TLE_LINE2":"2 47141  53.0576  55.0462 0001565  66.3934 293.7219 15.06402445 70275","NORAD_CAT_ID":"47141","MEAN_ELEMENT_THEORY":"SGP4","PERIAPSIS":"546.122","OBJECT_TYPE":"PAYLOAD"},{"FILE":"3331200","INCLINATION":"53.0554","DECAY_DATE":null,"MEAN_MOTION_DOT":"0.00001567","ARG_OF_PERICENTER":"58.3869","LAUNCH_DATE":"2020-11-25","MEAN_MOTION_DDOT":"0.0000000000000","APOAPSIS":"548.377","EPOCH":"2022-02-27T16:55:19.148736","OBJECT_ID":"2020-088X","BSTAR":"0.00012409000000","RA_OF_ASC_NODE":"55.1117","REF_FRAME":"TEME","TLE_LINE2":"2 47143  53.0554  55.1117 0001687  58.3869 301.7284 15.06401481 70264","NORAD_CAT_ID":"47143","MEAN_ELEMENT_THEORY":"SGP4","PERIAPSIS":"546.041","OBJECT_TYPE":"PAYLOAD","EPHEMERIS_TYPE":"0","SITE":"AFETR","OBJECT_NAME":"STARLINK-1856","MEAN_MOTION":"15.06401481","RCS_SIZE":"LARGE","CLASSIFICATION_TYPE":"U","COUNTRY_CODE":"US","TIME_SYSTEM":"UTC","TLE_LINE1":"1 47143U 20088X   22058.70508274  .00001567  00000-0  12409-3 0  9995","ECCENTRICITY":"0.00016870","CENTER_NAME":"EARTH","MEAN_ANOMALY":"301.7284","PERIOD":"95.592","ELEMENT_SET_NO":"999","REV_AT_EPOCH":"7026","GP_ID":"197286167","SEMIMAJOR_AXIS":"6925.344"},{"TLE_LINE2":"2 47144  53.0571  45.1949 0002216  54.0710 306.0484 15.06398264 70403","REF_FRAME":"TEME","RA_OF_ASC_NODE":"45.1949","MEAN_ELEMENT_THEORY":"SGP4","NORAD_CAT_ID":"47144","OBJECT_TYPE":"PAYLOAD","PERIAPSIS":"545.684","DECAY_DATE":null,"INCLINATION":"53.0571","FILE":"3331200","LAUNCH_DATE":"2020-11-25","ARG_OF_PERICENTER":"54.0710","MEAN_MOTION_DOT":"0.00001125","APOAPSIS":"548.754","MEAN_MOTION_DDOT":"0.0000000000000","BSTAR":"0.00009440400000","EPOCH":"2022-02-27T16:35:25.601856","OBJECT_ID":"2020-088Y","MEAN_ANOMALY":"306.0484","CENTER_NAME":"EARTH","ECCENTRICITY":"0.00022160","TLE_LINE1":"1 47144U 20088Y   22058.69126854  .00001125  00000-0  94404-4 0  9990","PERIOD":"95.592","ELEMENT_SET_NO":"999","GP_ID":"197285416","SEMIMAJOR_AXIS":"6925.354","REV_AT_EPOCH":"7040","EPHEMERIS_TYPE":"0","RCS_SIZE":"LARGE","MEAN_MOTION":"15.06398264","OBJECT_NAME":"STARLINK-1857","SITE":"AFETR","COUNTRY_CODE":"US","CLASSIFICATION_TYPE":"U","TIME_SYSTEM":"UTC"},{"FILE":"3329903","INCLINATION":"53.0546","DECAY_DATE":null,"MEAN_MOTION_DOT":"0.00554545","LAUNCH_DATE":"2020-11-25","ARG_OF_PERICENTER":"64.4216","MEAN_MOTION_DDOT":"0.0000000000000","APOAPSIS":"448.174","EPOCH":"2022-02-27T08:38:45.330432","OBJECT_ID":"2020-088Z","BSTAR":"0.01282500000000","REF_FRAME":"TEME","RA_OF_ASC_NODE":"40.4504","TLE_LINE2":"2 47145  53.0546  40.4504 0002048  64.4216 295.6999 15.39775006 70447","NORAD_CAT_ID":"47145","MEAN_ELEMENT_THEORY":"SGP4","PERIAPSIS":"445.378","OBJECT_TYPE":"PAYLOAD","EPHEMERIS_TYPE":"0","SITE":"AFETR","MEAN_MOTION":"15.39775006","OBJECT_NAME":"STARLINK-1858","RCS_SIZE":"LARGE","CLASSIFICATION_TYPE":"U","COUNTRY_CODE":"US","TIME_SYSTEM":"UTC","TLE_LINE1":"1 47145U 20088Z   22058.36024688  .00554545  00000-0  12825-1 0  9990","ECCENTRICITY":"0.00020480","CENTER_NAME":"EARTH","MEAN_ANOMALY":"295.6999","PERIOD":"93.520","ELEMENT_SET_NO":"999","REV_AT_EPOCH":"7044","SEMIMAJOR_AXIS":"6824.911","GP_ID":"197235442"},{"TLE_LINE2":"2 47146  53.0527  39.9952 0000713  28.2056 331.9004 15.81495993 70479","RA_OF_ASC_NODE":"39.9952","REF_FRAME":"TEME","MEAN_ELEMENT_THEORY":"SGP4","NORAD_CAT_ID":"47146","OBJECT_TYPE":"PAYLOAD","PERIAPSIS":"325.733","DECAY_DATE":null,"INCLINATION":"53.0527","FILE":"3331200","ARG_OF_PERICENTER":"28.2056","LAUNCH_DATE":"2020-11-25","MEAN_MOTION_DOT":"0.00626470","APOAPSIS":"326.689","MEAN_MOTION_DDOT":"0.0000000000000","BSTAR":"0.00286900000000","OBJECT_ID":"2020-088AA","EPOCH":"2022-02-27T15:51:22.741632","MEAN_ANOMALY":"331.9004","ECCENTRICITY":"0.00007130","CENTER_NAME":"EARTH","TLE_LINE1":"1 47146U 20088AA  22058.66067988  .00626470  00000-0  28690-2 0  9999","PERIOD":"91.053","ELEMENT_SET_NO":"999","SEMIMAJOR_AXIS":"6704.346","GP_ID":"197285917","REV_AT_EPOCH":"7047","EPHEMERIS_TYPE":"0","RCS_SIZE":"LARGE","MEAN_MOTION":"15.81495993","OBJECT_NAME":"STARLINK-1859","SITE":"AFETR","COUNTRY_CODE":"US","CLASSIFICATION_TYPE":"U","TIME_SYSTEM":"UTC"},{"MEAN_ELEMENT_THEORY":"SGP4","NORAD_CAT_ID":"47147","TLE_LINE2":"2 47147  53.0556  65.0896 0001778  54.8667 305.2489 15.06390185 70132","RA_OF_ASC_NODE":"65.0896","REF_FRAME":"TEME","OBJECT_TYPE":"PAYLOAD","PERIAPSIS":"546.012","MEAN_MOTION_DOT":"0.00000542","ARG_OF_PERICENTER":"54.8667","LAUNCH_DATE":"2020-11-25","INCLINATION":"53.0556","DECAY_DATE":null,"FILE":"3331200","BSTAR":"0.00005527600000","EPOCH":"2022-02-27T17:09:55.848672","OBJECT_ID":"2020-088AB","APOAPSIS":"548.475","MEAN_MOTION_DDOT":"0.0000000000000","PERIOD":"95.593","MEAN_ANOMALY":"305.2489","TLE_LINE1":"1 47147U 20088AB  22058.71522973  .00000542  00000-0  55276-4 0  9994","ECCENTRICITY":"0.00017780","CENTER_NAME":"EARTH","REV_AT_EPOCH":"7013","GP_ID":"197286668","SEMIMAJOR_AXIS":"6925.379","ELEMENT_SET_NO":"999","MEAN_MOTION":"15.06390185","OBJECT_NAME":"STARLINK-1860","RCS_SIZE":"LARGE","SITE":"AFETR","EPHEMERIS_TYPE":"0","TIME_SYSTEM":"UTC","COUNTRY_CODE":"US","CLASSIFICATION_TYPE":"U"},{"COUNTRY_CODE":"US","CLASSIFICATION_TYPE":"U","TIME_SYSTEM":"UTC","EPHEMERIS_TYPE":"0","RCS_SIZE":"LARGE","OBJECT_NAME":"STARLINK-1861","MEAN_MOTION":"15.06397838","SITE":"AFETR","ELEMENT_SET_NO":"999","GP_ID":"197284916","SEMIMAJOR_AXIS":"6925.355","REV_AT_EPOCH":"7026","MEAN_ANOMALY":"308.2425","CENTER_NAME":"EARTH","ECCENTRICITY":"0.00017520","TLE_LINE1":"1 47148U 20088AC  22058.69035901  .00004731  00000-0  33630-3 0  9995","PERIOD":"95.592","APOAPSIS":"548.434","MEAN_MOTION_DDOT":"0.0000000000000","BSTAR":"0.00033630000000","EPOCH":"2022-02-27T16:34:07.018464","OBJECT_ID":"2020-088AC","DECAY_DATE":null,"INCLINATION":"53.0538","FILE":"3331200","LAUNCH_DATE":"2020-11-25","ARG_OF_PERICENTER":"51.8722","MEAN_MOTION_DOT":"0.00004731","OBJECT_TYPE":"PAYLOAD","PERIAPSIS":"546.007","TLE_LINE2":"2 47148  53.0538  55.2045 0001752  51.8722 308.2425 15.06397838 70260","REF_FRAME":"TEME","RA_OF_ASC_NODE":"55.2045","MEAN_ELEMENT_THEORY":"SGP4","NORAD_CAT_ID":"47148"},{"ARG_OF_PERICENTER":"61.0237","LAUNCH_DATE":"2020-11-25","MEAN_MOTION_DOT":"-0.00001444","DECAY_DATE":null,"INCLINATION":"53.0544","FILE":"3329903","BSTAR":"-0.00007809700000","OBJECT_ID":"2020-088AD","EPOCH":"2022-02-27T07:42:00.915552","APOAPSIS":"548.401","MEAN_MOTION_DDOT":"0.0000000000000","MEAN_ELEMENT_THEORY":"SGP4","NORAD_CAT_ID":"47149","TLE_LINE2":"2 47149  53.0544  66.8479 0001647  61.0237 299.0917 15.06384666 70802","REF_FRAME":"TEME","RA_OF_ASC_NODE":"66.8479","OBJECT_TYPE":"PAYLOAD","PERIAPSIS":"546.120","RCS_SIZE":"LARGE","MEAN_MOTION":"15.06384666","OBJECT_NAME":"STARLINK-1862","SITE":"AFETR","EPHEMERIS_TYPE":"0","TIME_SYSTEM":"UTC","COUNTRY_CODE":"US","CLASSIFICATION_TYPE":"U","PERIOD":"95.593","MEAN_ANOMALY":"299.0917","ECCENTRICITY":"0.00016470","CENTER_NAME":"EARTH","TLE_LINE1":"1 47149U 20088AD  22058.32084393 -.00001444  00000-0 -78097-4 0  9992","SEMIMAJOR_AXIS":"6925.396","GP_ID":"197235942","REV_AT_EPOCH":"7080","ELEMENT_SET_NO":"999"},{"BSTAR":"0.00035591000000","OBJECT_ID":"2020-088AE","EPOCH":"2022-02-27T17:05:56.298624","APOAPSIS":"548.314","MEAN_MOTION_DDOT":"0.0000000000000","ARG_OF_PERICENTER":"66.3268","LAUNCH_DATE":"2020-11-25","MEAN_MOTION_DOT":"0.00005024","DECAY_DATE":null,"INCLINATION":"53.0533","FILE":"3331200","OBJECT_TYPE":"PAYLOAD","PERIAPSIS":"546.092","MEAN_ELEMENT_THEORY":"SGP4","NORAD_CAT_ID":"47150","TLE_LINE2":"2 47150  53.0533  55.0885 0001604  66.3268 293.7889 15.06403441 70271","REF_FRAME":"TEME","RA_OF_ASC_NODE":"55.0885","TIME_SYSTEM":"UTC","COUNTRY_CODE":"US","CLASSIFICATION_TYPE":"U","RCS_SIZE":"LARGE","MEAN_MOTION":"15.06403441","OBJECT_NAME":"STARLINK-1863","SITE":"AFETR","EPHEMERIS_TYPE":"0","SEMIMAJOR_AXIS":"6925.338","GP_ID":"197286418","REV_AT_EPOCH":"7027","ELEMENT_SET_NO":"999","PERIOD":"95.592","MEAN_ANOMALY":"293.7889","ECCENTRICITY":"0.00016040","CENTER_NAME":"EARTH","TLE_LINE1":"1 47150U 20088AE  22058.71245716  .00005024  00000-0  35591-3 0  9992"}];
